AETHER-2                
1 58299U 23174AV  26068.71793741  .00008341  00000+0  26166-3 0  9990
2 58299  97.3931 151.9008 0008630 139.5247 220.6639 15.33264165129982
STARLINK-34525          
1 64678U 25139Q   26068.45493914  .00013067  00000+0  45252-3 0  9999
2 64678  53.1578 128.4477 0001149  87.3536 272.7596 15.30199814 40241
